      2.10          N: GNSS NAV DATA                        RINEX VERSION / TYPE
fic2rin                                 10/12/2018 00:22:35 PGM / RUN BY / DATE
                                                            END OF HEADER
31 18 10 11  4  0  0.0 8.758530020714e-05-2.614797267597e-12 0.000000000000e+00
    8.700000000000e+01 1.054062500000e+02 4.676266213829e-09 2.601539735178e+00
    5.573034286499e-06 8.961834129877e-03 6.336718797684e-06 5.153763324738e+03
    3.600000000000e+05-2.179294824600e-07-1.963726093120e+00 1.378357410431e-07
    9.618434412801e-01 2.585937500000e+02-1.012155348904e-01-8.194269895661e-09
    4.260891768959e-10 1.000000000000e+00 2.022000000000e+03 0.000000000000e+00
    3.400000000000e+00 0.000000000000e+00-1.350417733192e-08 8.700000000000e+01
    3.528060000000e+05 4.000000000000e+00
20 18 10 11  4  0  0.0 5.171094089746e-04 5.684341886081e-13 0.000000000000e+00
    1.030000000000e+02-2.159375000000e+01 5.630948837335e-09-2.951094698745e+00
   -1.061707735062e-06 4.369244561531e-03 3.555789589882e-06 5.153666799545e+03
    3.600000000000e+05-1.862645149231e-09 2.082417087087e+00 8.381903171539e-08
    9.288905312877e-01 2.903750000000e+02 2.124683388540e+00-8.692862092598e-09
   -9.500395729616e-11 1.000000000000e+00 2.022000000000e+03 0.000000000000e+00
    2.400000000000e+00 0.000000000000e+00-8.381903171539e-09 1.030000000000e+02
    3.528060000000e+05 4.000000000000e+00
28 18 10 11  4  0  0.0 7.491046562791e-04 1.818989403546e-12 0.000000000000e+00
    9.600000000000e+01-6.425000000000e+01 4.546975114050e-09 2.865080922006e-01
   -3.341585397720e-06 1.961294317152e-02 3.986060619354e-06 5.153685335159e+03
    3.600000000000e+05-2.384185791016e-07-8.577312305772e-01-7.264316082001e-08
    9.844387698491e-01 3.206875000000e+02-1.510147811604e+00-8.665003789331e-09
   -4.110885520597e-10 1.000000000000e+00 2.022000000000e+03 0.000000000000e+00
    2.400000000000e+00 0.000000000000e+00-1.117587089539e-08 9.600000000000e+01
    3.528060000000e+05 4.000000000000e+00
 3 18 10 11  3 59 44.0 1.474325545132e-04 4.661160346586e-12 0.000000000000e+00
    3.800000000000e+01-3.681250000000e+01 4.804128682672e-09 2.383640363572e+00
   -1.879408955574e-06 1.802398939617e-03 5.088746547699e-06 5.153655727386e+03
    3.599840000000e+05-2.048909664154e-08 2.196504071588e+00-2.048909664154e-08
    9.614817245446e-01 2.805312500000e+02 6.744612189541e-01-8.298917111780e-09
   -2.585821995580e-10 1.000000000000e+00 2.022000000000e+03 0.000000000000e+00
    2.400000000000e+00 0.000000000000e+00 1.862645149231e-09 3.800000000000e+01
    3.564060000000e+05 4.000000000000e+00
20 18 10 11  3 59 44.0 5.171098746359e-04 5.684341886081e-13 0.000000000000e+00
    0.000000000000e+00-2.159375000000e+01 5.630591679601e-09-2.953428276908e+00
   -1.061707735062e-06 4.369243863039e-03 3.555789589882e-06 5.153666810989e+03
    3.599840000000e+05-1.862645149231e-09 2.082417234842e+00 8.381903171539e-08
    9.288905254360e-01 2.903750000000e+02 2.124683106197e+00-8.692862092598e-09
   -9.500395729616e-11 1.000000000000e+00 2.022000000000e+03 0.000000000000e+00
    2.400000000000e+00 0.000000000000e+00-8.381903171539e-09 0.000000000000e+00
    3.574560000000e+05 4.000000000000e+00
 6 18 10 11  3 59 44.0 3.514103591442e-04-5.570655048359e-12 0.000000000000e+00
    2.000000000000e+00 4.862500000000e+01 4.357324357192e-09-2.493506121362e+00
    2.482905983925e-06 9.935718262568e-04 8.765608072281e-06 5.153712442398e+03
    3.599840000000e+05 1.061707735062e-07 1.144962647993e+00 1.490116119385e-08
    9.722646450108e-01 2.189375000000e+02-1.174327101860e+00-7.947116743597e-09
    5.221646073947e-10 1.000000000000e+00 2.022000000000e+03 0.000000000000e+00
    2.400000000000e+00 0.000000000000e+00 4.656612873077e-09 2.000000000000e+00
    3.586260000000e+05 4.000000000000e+00
 6 18 10 11  5 59 44.0 3.513698466122e-04-5.570655048359e-12 0.000000000000e+00
    3.000000000000e+00 5.118750000000e+01 4.404112020372e-09-1.442763816767e+00
    2.607703208923e-06 9.935116395354e-04 8.495524525642e-06 5.153713495255e+03
    3.671840000000e+05 2.421438694000e-08 1.144905131906e+00 6.146728992462e-08
    9.722679790011e-01 2.230000000000e+02-1.174913282894e+00-8.030334495665e-09
    5.118070331030e-10 1.000000000000e+00 2.022000000000e+03 0.000000000000e+00
    2.400000000000e+00 0.000000000000e+00 4.656612873077e-09 3.000000000000e+00
    3.600060000000e+05 4.000000000000e+00
 3 18 10 11  5 59 44.0 1.474665477872e-04 4.661160346586e-12 0.000000000000e+00
    3.900000000000e+01-3.375000000000e+01 4.778413325809e-09-2.849452989486e+00
   -1.680105924606e-06 1.801798702218e-03 4.943460226059e-06 5.153656908035e+03
    3.671840000000e+05-1.862645149231e-09 2.196444457677e+00-5.587935447693e-09
    9.614799324699e-01 2.838125000000e+02 6.745626328241e-01-8.278201963197e-09
   -2.632252501025e-10 1.000000000000e+00 2.022000000000e+03 0.000000000000e+00
    2.400000000000e+00 0.000000000000e+00 1.862645149231e-09 3.900000000000e+01
    3.600060000000e+05 4.000000000000e+00
20 18 10 11  5 59 44.0 5.171135999262e-04 5.684341886081e-13 0.000000000000e+00
    1.000000000000e+00-1.293750000000e+01 5.639877780690e-09-1.903515261074e+00
   -4.880130290985e-07 4.370759706944e-03 4.315748810768e-06 5.153663133621e+03
    3.671840000000e+05-4.656612873077e-08 2.082354619023e+00 7.636845111847e-08
    9.288897822736e-01 2.795625000000e+02 2.124964425343e+00-8.712148610245e-09
   -9.036090675161e-11 1.000000000000e+00 2.022000000000e+03 0.000000000000e+00
    2.400000000000e+00 0.000000000000e+00-8.381903171539e-09 1.000000000000e+00
    3.600060000000e+05 4.000000000000e+00
 2 18 10 11  6  0  0.0-2.667400985956e-05-1.080024958355e-11 0.000000000000e+00
    2.700000000000e+01 5.221875000000e+01 4.837344351952e-09-1.437904708034e+00
    2.888962626457e-06 1.823655632325e-02 8.929520845413e-06 5.153568302155e+03
    3.672000000000e+05 2.793967723846e-07 1.089234450027e+00 4.824250936508e-07
    9.517055228579e-01 2.041875000000e+02-1.824918745248e+00-8.197484315269e-09
    4.414469594664e-10 1.000000000000e+00 2.022000000000e+03 0.000000000000e+00
    2.400000000000e+00 0.000000000000e+00-2.048909664154e-08 2.700000000000e+01
    3.600060000000e+05 4.000000000000e+00
 1 18 10 11  6  0  0.0-9.894603863358e-05-4.888534022029e-12 0.000000000000e+00
    5.000000000000e+01 5.190625000000e+01 4.288392914492e-09-1.761576458056e+00
    2.717599272728e-06 8.116599638015e-03 8.398666977882e-06 5.153661096573e+03
    3.672000000000e+05 5.215406417847e-08 1.153220102258e+00-1.322478055954e-07
    9.725709112994e-01 2.254375000000e+02 6.989285706433e-01-7.853541417238e-09
    4.932348309248e-10 1.000000000000e+00 2.022000000000e+03 0.000000000000e+00
    3.400000000000e+00 0.000000000000e+00 5.587935447693e-09 5.000000000000e+01
    3.600060000000e+05 4.000000000000e+00
 8 18 10 11  6  0  0.0-1.181727275252e-04-1.364242052659e-12 0.000000000000e+00
    8.900000000000e+01-7.415625000000e+01 4.080527113190e-09 8.190898528716e-01
   -3.982335329056e-06 3.614531829953e-03 1.089647412300e-05 5.153644994736e+03
    3.672000000000e+05 4.470348358154e-08 8.809125500008e-02 2.421438694000e-08
    9.701324448361e-01 1.718437500000e+02-4.113122155933e-01-7.827826060376e-09
   -2.428672592533e-10 1.000000000000e+00 2.022000000000e+03 0.000000000000e+00
    2.400000000000e+00 0.000000000000e+00 5.122274160385e-09 8.900000000000e+01
    3.600060000000e+05 4.000000000000e+00
 5 18 10 11  6  0  0.0-1.088250428438e-06 3.410605131648e-13 0.000000000000e+00
    8.100000000000e+01-2.809375000000e+01 5.183787354122e-09 1.136588686932e+00
   -1.303851604462e-06 5.675143329427e-03 4.997476935387e-06 5.153787477493e+03
    3.672000000000e+05-1.043081283569e-07 2.172750429354e+00-1.862645149231e-09
    9.483456871816e-01 2.792500000000e+02 7.019730743276e-01-8.491782288246e-09
   -3.375140588153e-10 1.000000000000e+00 2.022000000000e+03 0.000000000000e+00
    2.400000000000e+00 0.000000000000e+00-1.117587089539e-08 8.100000000000e+01
    3.600060000000e+05 4.000000000000e+00
 7 18 10 11  6  0  0.0 1.088371500373e-04-6.821210263297e-12 0.000000000000e+00
    1.000000000000e+02 1.115625000000e+02 4.722339561541e-09-2.399983935136e+00
    5.504116415977e-06 1.208321948070e-02 5.930662155151e-06 5.153640270233e+03
    3.672000000000e+05 1.024454832077e-07-1.976882367028e+00-1.285225152969e-07
    9.572440955960e-01 2.655625000000e+02-2.485260803465e+00-8.158196964507e-09
    5.393081786361e-10 1.000000000000e+00 2.022000000000e+03 0.000000000000e+00
    3.400000000000e+00 0.000000000000e+00-1.117587089539e-08 1.000000000000e+02
    3.600060000000e+05 4.000000000000e+00
 4 18 10 11  6  0  0.0 7.914518937469e-04 5.854872142663e-11 0.000000000000e+00
    9.700000000000e+01-8.843750000000e+01 4.534831751088e-09 6.235003886653e-01
   -4.416331648827e-06 1.357884623576e-02 1.012720167637e-05 5.153680273056e+03
    3.672000000000e+05-4.842877388000e-08 8.004692741868e-04 1.825392246246e-07
    9.591106708092e-01 1.830312500000e+02 5.704488465585e-01-8.181412217230e-09
   -3.625151002090e-10 1.000000000000e+00 2.022000000000e+03 0.000000000000e+00
    6.144000000000e+03 6.300000000000e+01-5.587935447693e-09 9.700000000000e+01
    3.600060000000e+05 4.000000000000e+00
10 18 10 11  6  0  0.0 1.755962148309e-04-3.183231456205e-12 0.000000000000e+00
    2.600000000000e+01-2.428125000000e+01 4.861988235611e-09 2.557627397801e+00
   -1.225620508194e-06 3.856294788420e-03 4.773959517479e-06 5.153655925751e+03
    3.672000000000e+05-7.636845111847e-08 2.193070452176e+00-3.352761268616e-08
    9.615420977108e-01 2.872500000000e+02-2.814469622345e+00-8.285702275615e-09
   -2.164375869228e-10 1.000000000000e+00 2.022000000000e+03 0.000000000000e+00
    2.400000000000e+00 0.000000000000e+00 1.862645149231e-09 2.600000000000e+01
    3.600060000000e+05 4.000000000000e+00
